0 COSMOS 1285 DEB
1 33524U 81071Z   13277.09808359 -.00000055  00000-0  00000+0 0  6410
2 33524 069.4562 339.5903 5888433 111.1381 319.4743 01.98265822683728
0 COSMOS 1285 DEB
1 33524U 81071Z   13279.15125605  .00000180  00000-0  00000+0 0  6424
2 33524 069.4588 339.4704 5887028 111.0761 344.9357 01.98264199683779
0 COSMOS 1285 DEB
1 33524U 81071Z   13282.15816054  .00000500  00000-0  00000+0 0  6430
2 33524 069.4637 339.2935 5885806 110.9861 331.1175 01.98263963683830
0 COSMOS 1285 DEB
1 33524U 81071Z   13290.21163440  .00000000  00000-0  10000-3 0  6463
2 33524 069.4731 338.8221 5884920 110.7446 319.3864 01.98272935683989
0 COSMOS 1285 DEB
1 33524U 81071Z   13290.23760212  .00000757  00000-0  00000+0 0  6458
2 33524 069.4725 338.8237 5882550 110.7460 337.9166 01.98272656683994
